OBJECT_NAME,OBJECT_ID,EPOCH,MEAN_MOTION,ECCENTRICITY,INCLINATION,RA_OF_ASC_NODE,ARG_OF_PERICENTER,MEAN_ANOMALY,EPHEMERIS_TYPE,CLASSIFICATION_TYPE,NORAD_CAT_ID,ELEMENT_SET_NO,REV_AT_EPOCH,BSTAR,MEAN_MOTION_DOT,MEAN_MOTION_DDOT
DTC TEST OBJECT B,2026-128B,2026-06-27T09:02:13.824960,15.56860342,.0009934,55.0021,257.9040,325.3113,34.7274,0,U,69473,999,280,.3356545E-3,.24134E-3,0
TJS-25,2026-129A,2026-07-07T21:09:42.737760,1.00267215,.0002991,5.9620,330.2985,282.4530,110.7173,0,U,69474,999,27,0,-.355E-5,0
STARLINK-37816,2026-131A,2026-07-08T04:00:01.998720,15.70339010,.0001822,97.2842,210.6440,70.1899,35.7832,0,U,69478,999,538,-.23677E-1,-.2516197E-1,0
STARLINK-37878,2026-131B,2026-07-08T04:00:01.998720,15.75848827,.0001613,97.2841,210.6439,79.3763,25.0941,0,U,69479,999,424,-.14428E-1,-.1926211E-1,0
STARLINK-37817,2026-131C,2026-07-07T00:00:28.443744,15.80951429,.00010584,97.2843,209.4321,136.5615,223.5737,0,U,69480,999,529,.16094205E-2,.321772E-2,0
STARLINK-37727,2026-131D,2026-07-08T04:00:01.998720,15.70008111,.0001856,97.2844,210.6494,76.2756,40.9348,0,U,69481,999,538,-.24505E-1,-.256158E-1,0
STARLINK-37814,2026-131E,2026-07-08T04:00:01.998720,15.75221429,.0001699,97.2845,210.6643,66.3766,85.9036,0,U,69482,999,538,-.13577E-1,-.1783377E-1,0
STARLINK-37869,2026-131F,2026-07-08T04:00:01.998720,15.72928439,.0001993,97.2844,210.6608,74.9145,69.8822,0,U,69483,999,538,-.22296E-1,-.2627652E-1,0
STARLINK-37873,2026-131G,2026-07-08T04:00:01.998720,15.74014887,.0001931,97.2842,210.6649,77.9502,76.4353,0,U,69484,999,538,-.20314E-1,-.2467742E-1,0
STARLINK-37892,2026-131H,2026-07-08T02:00:03.000384,15.77377478,.0001786,97.2841,210.5858,55.9078,0.5290,0,U,69485,999,536,-.17563E-1,-.2473763E-1,0
STARLINK-37893,2026-131J,2026-07-06T13:15:54.591552,15.80806533,.00013796,97.2853,208.9693,94.8147,265.3279,0,U,69486,999,522,.93923771E-3,.183522E-2,0
STARLINK-37842,2026-131K,2026-07-08T02:00:03.000384,15.71918515,.00017,97.2840,210.5785,63.5267,338.6687,0,U,69487,999,536,-.21775E-1,-.24243E-1,0
STARLINK-37449,2026-131L,2026-07-08T02:00:03.000384,15.77101945,.000158,97.2842,210.5907,60.7123,8.4398,0,U,69488,999,545,-.16981E-1,-.237815E-1,0
STARLINK-37831,2026-131M,2026-07-08T02:00:03.000384,15.69501867,.0001498,97.2843,210.5720,52.0505,336.1210,0,U,69489,999,400,-.11754E-1,-.124017E-1,0
STARLINK-37879,2026-131N,2026-07-08T02:00:03.000384,15.72443136,.0001582,97.2840,210.5843,79.2080,336.5960,0,U,69490,999,536,-.59522E-2,-.72536E-2,0
STARLINK-37856,2026-131P,2026-07-07T19:46:22.305792,15.80082279,.0017314,97.2869,210.2974,301.6612,58.2966,0,U,69491,999,542,.11593E-2,.222266E-2,0
STARLINK-37568,2026-131Q,2026-07-08T02:00:03.000384,15.71798866,.0001687,97.2842,210.5872,67.1770,355.2713,0,U,69492,999,545,-.21605E-1,-.239781E-1,0
STARLINK-37855,2026-131R,2026-07-07T18:10:12.334080,15.80869231,.0001373,97.2847,210.2393,127.3807,232.7587,0,U,69493,999,541,.10916E-2,.214702E-2,0
STARLINK-37854,2026-131S,2026-07-08T02:00:03.000384,15.77535020,.000154,97.2839,210.5812,80.9838,324.2248,0,U,69494,999,542,-.62484E-2,-.927992E-2,0
STARLINK-37789,2026-131T,2026-07-08T02:00:03.000384,15.73775475,.0001882,97.2846,210.5970,68.2395,17.9362,0,U,69495,999,544,-.19582E-1,-.2370645E-1,0
STARLINK-37839,2026-131U,2026-07-08T02:00:03.000384,15.75568570,.000174,97.2843,210.5832,68.7549,344.8047,0,U,69496,999,542,-.18731E-1,-.2440178E-1,0
STARLINK-37798,2026-131V,2026-07-08T04:00:01.998720,15.73583272,.0001907,97.2847,210.6862,84.9514,118.4744,0,U,69497,999,544,-.20438E-1,-.2441441E-1,0
STARLINK-37853,2026-131W,2026-07-07T23:56:13.271712,15.80927846,.0001418,97.2852,210.5245,97.7192,262.4237,0,U,69498,999,419,.12223E-2,.241823E-2,0
STARLINK-37849,2026-131X,2026-07-08T04:00:01.998720,15.70425249,.0001922,97.2846,210.6848,95.5414,106.3426,0,U,69499,999,546,-.24554E-1,-.260532E-1,0
STARLINK-37835,2026-131Y,2026-07-08T02:00:03.000384,15.71387218,.0001547,97.2845,210.6023,65.2096,20.3456,0,U,69500,999,433,-.20972E-1,-.2302596E-1,0
STARLINK-37843,2026-131Z,2026-07-08T02:00:03.000384,15.70242042,.0001672,97.2834,210.5951,73.7187,7.6208,0,U,69501,999,542,-.24511E-1,-.2583807E-1,0
STARS-X,2026-132A,2026-07-08T02:45:00.518976,14.99093855,.0013927,97.6882,252.5122,190.5751,169.5181,0,U,69502,999,391,.10957E-3,.1274E-4,0
PETREL,2026-132B,2026-07-08T02:42:50.903424,14.99173372,.0013803,97.6911,252.5242,192.5247,167.5635,0,U,69503,999,391,.88973E-4,.1025E-4,0
BRO-22,2026-132C,2026-07-08T00:51:12.826368,14.99793081,.0015799,97.6834,252.4488,206.9015,153.1391,0,U,69504,999,390,.72259E-4,.836E-5,0
HORN-L,2026-132D,2026-07-07T10:03:43.390080,15.10057270,.00248271,97.6734,252.0105,234.3210,125.5708,0,U,69505,999,382,.13764206E-3,.2188E-4,0
