DTC TEST OBJECT B       
1 69473U 26128B   26178.37654890  .00024134  00000+0  33565-3 0  9992
2 69473  55.0021 257.9040 0009934 325.3113  34.7274 15.56860342  2801
TJS-25                  
1 69474U 26129A   26188.88174465 -.00000355  00000+0  00000+0 0  9990
2 69474   5.9620 330.2985 0002991 282.4530 110.7173  1.00267215   272
STARLINK-37816          
1 69478U 26131A   26189.16668980 -.02516197  00000+0 -23677-1 0  9995
2 69478  97.2842 210.6440 0001822  70.1899  35.7832 15.70339010  5385
STARLINK-37878          
1 69479U 26131B   26189.16668980 -.01926211  00000+0 -14428-1 0  9991
2 69479  97.2841 210.6439 0001613  79.3763  25.0941 15.75848827  4245
STARLINK-37817          
1 69480U 26131C   26188.00032921  .00321772  00000+0  16094-2 0  9995
2 69480  97.2843 209.4321 0001058 136.5615 223.5737 15.80951429  5293
STARLINK-37727          
1 69481U 26131D   26189.16668980 -.02561580  00000+0 -24505-1 0  9996
2 69481  97.2844 210.6494 0001856  76.2756  40.9348 15.70008111  5381
STARLINK-37814          
1 69482U 26131E   26189.16668980 -.01783377  00000+0 -13577-1 0  9993
2 69482  97.2845 210.6643 0001699  66.3766  85.9036 15.75221429  5382
STARLINK-37869          
1 69483U 26131F   26189.16668980 -.02627652  00000+0 -22296-1 0  9996
2 69483  97.2844 210.6608 0001993  74.9145  69.8822 15.72928439  5382
STARLINK-37873          
1 69484U 26131G   26189.16668980 -.02467742  00000+0 -20314-1 0  9998
2 69484  97.2842 210.6649 0001931  77.9502  76.4353 15.74014887  5386
STARLINK-37892          
1 69485U 26131H   26189.08336806 -.02473763  00000+0 -17563-1 0  9991
2 69485  97.2841 210.5858 0001786  55.9078   0.5290 15.77377478  5366
STARLINK-37893          
1 69486U 26131J   26187.55271518  .00183522  00000+0  93924-3 0  9994
2 69486  97.2853 208.9693 0001379  94.8147 265.3279 15.80806533  5221
STARLINK-37842          
1 69487U 26131K   26189.08336806 -.02424300  00000+0 -21775-1 0  9996
2 69487  97.2840 210.5785 0001700  63.5267 338.6687 15.71918515  5369
STARLINK-37449          
1 69488U 26131L   26189.08336806 -.02378150  00000+0 -16981-1 0  9991
2 69488  97.2842 210.5907 0001580  60.7123   8.4398 15.77101945  5452
STARLINK-37831          
1 69489U 26131M   26189.08336806 -.01240170  00000+0 -11754-1 0  9994
2 69489  97.2843 210.5720 0001498  52.0505 336.1210 15.69501867  4005
STARLINK-37879          
1 69490U 26131N   26189.08336806 -.00725360  00000+0 -59522-2 0  9990
2 69490  97.2840 210.5843 0001582  79.2080 336.5960 15.72443136  5367
STARLINK-37856          
1 69491U 26131P   26188.82386928  .00222266  00000+0  11593-2 0  9993
2 69491  97.2869 210.2974 0017314 301.6612  58.2966 15.80082279  5421
STARLINK-37568          
1 69492U 26131Q   26189.08336806 -.02397810  00000+0 -21605-1 0  9999
2 69492  97.2842 210.5872 0001687  67.1770 355.2713 15.71798866  5457
STARLINK-37855          
1 69493U 26131R   26188.75708720  .00214702  00000+0  10916-2 0  9999
2 69493  97.2847 210.2393 0001373 127.3807 232.7587 15.80869231  5419
STARLINK-37854          
1 69494U 26131S   26189.08336806 -.00927992  00000+0 -62484-2 0  9990
2 69494  97.2839 210.5812 0001540  80.9838 324.2248 15.77535020  5428
STARLINK-37789          
1 69495U 26131T   26189.08336806 -.02370645  00000+0 -19582-1 0  9990
2 69495  97.2846 210.5970 0001882  68.2395  17.9362 15.73775475  5449
STARLINK-37839          
1 69496U 26131U   26189.08336806 -.02440178  00000+0 -18731-1 0  9995
2 69496  97.2843 210.5832 0001740  68.7549 344.8047 15.75568570  5421
STARLINK-37798          
1 69497U 26131V   26189.16668980 -.02441441  00000+0 -20438-1 0  9997
2 69497  97.2847 210.6862 0001907  84.9514 118.4744 15.73583272  5442
STARLINK-37853          
1 69498U 26131W   26188.99737583  .00241823  00000+0  12223-2 0  9996
2 69498  97.2852 210.5245 0001418  97.7192 262.4237 15.80927846  4199
STARLINK-37849          
1 69499U 26131X   26189.16668980 -.02605320  00000+0 -24554-1 0  9990
2 69499  97.2846 210.6848 0001922  95.5414 106.3426 15.70425249  5462
STARLINK-37835          
1 69500U 26131Y   26189.08336806 -.02302596  00000+0 -20972-1 0  9992
2 69500  97.2845 210.6023 0001547  65.2096  20.3456 15.71387218  4339
STARLINK-37843          
1 69501U 26131Z   26189.08336806 -.02583807  00000+0 -24511-1 0  9992
2 69501  97.2834 210.5951 0001672  73.7187   7.6208 15.70242042  5429
STARS-X                 
1 69502U 26132A   26189.11458934  .00001274  00000+0  10957-3 0  9995
2 69502  97.6882 252.5122 0013927 190.5751 169.5181 14.99093855  3910
PETREL                  
1 69503U 26132B   26189.11308916  .00001025  00000+0  88973-4 0  9998
2 69503  97.6911 252.5242 0013803 192.5247 167.5635 14.99173372  3917
BRO-22                  
1 69504U 26132C   26189.03556512  .00000836  00000+0  72259-4 0  9996
2 69504  97.6834 252.4488 0015799 206.9015 153.1391 14.99793081  3906
HORN-L                  
1 69505U 26132D   26188.41925220  .00002188  00000+0  13764-3 0  9991
2 69505  97.6734 252.0105 0024827 234.3210 125.5708 15.10057270  3825
